start=new Date('2022-09-29T00:00:00.000Z').valueOf();
sats=[{"OBJECT_TYPE":"PAYLOAD","SITE":"AFWTR","ARG_OF_PERICENTER":"50.6892","INCLINATION":"53.2150","OBJECT_ID":"2021-125AH","DECAY_DATE":null,"FILE":"3586258","RA_OF_ASC_NODE":"125.9315","MEAN_MOTION_DOT":"0.00003060","MEAN_ANOMALY":"309.4276","MEAN_MOTION_DDOT":"0.0000000000000","ECCENTRICITY":"0.00019810","PERIAPSIS":"538.359","RCS_SIZE":"LARGE","GP_ID":"213765821","NORAD_CAT_ID":"50187","EPOCH":"2022-09-28T19:34:37.426080","MEAN_MOTION":"15.08845303","CLASSIFICATION_TYPE":"U","CENTER_NAME":"EARTH","SEMIMAJOR_AXIS":"6917.864","REV_AT_EPOCH":"4682","REF_FRAME":"TEME","LAUNCH_DATE":"2021-12-18","TIME_SYSTEM":"UTC","BSTAR":"0.00021027000000","PERIOD":"95.437","TLE_LINE2":"2 50187  53.2150 125.9315 0001981  50.6892 309.4276 15.08845303 46822","TLE_LINE1":"1 50187U 21125AH  22271.81571095  .00003060  00000-0  21027-3 0  9996","MEAN_ELEMENT_THEORY":"SGP4","EPHEMERIS_TYPE":"0","APOAPSIS":"541.100","COUNTRY_CODE":"US","ELEMENT_SET_NO":"999","OBJECT_NAME":"STARLINK-3272"},{"INCLINATION":"53.2148","ARG_OF_PERICENTER":"58.9330","SITE":"AFWTR","DECAY_DATE":null,"OBJECT_ID":"2021-125AJ","OBJECT_TYPE":"PAYLOAD","EPOCH":"2022-09-28T16:29:09.521664","NORAD_CAT_ID":"50188","GP_ID":"213766071","RCS_SIZE":"LARGE","PERIAPSIS":"538.671","MEAN_ANOMALY":"301.1815","MEAN_MOTION_DOT":"0.00001193","FILE":"3586258","RA_OF_ASC_NODE":"126.5037","MEAN_MOTION_DDOT":"0.0000000000000","ECCENTRICITY":"0.00015590","BSTAR":"0.00009302600000","TIME_SYSTEM":"UTC","LAUNCH_DATE":"2021-12-18","REF_FRAME":"TEME","TLE_LINE1":"1 50188U 21125AJ  22271.68691576  .00001193  00000-0  93026-4 0  9993","TLE_LINE2":"2 50188  53.2148 126.5037 0001559  58.9330 301.1815 15.08838792 46863","PERIOD":"95.438","CENTER_NAME":"EARTH","SEMIMAJOR_AXIS":"6917.884","CLASSIFICATION_TYPE":"U","MEAN_MOTION":"15.08838792","REV_AT_EPOCH":"4686","COUNTRY_CODE":"US","OBJECT_NAME":"STARLINK-3275","ELEMENT_SET_NO":"999","MEAN_ELEMENT_THEORY":"SGP4","APOAPSIS":"540.828","EPHEMERIS_TYPE":"0"},{"BSTAR":"0.00010076000000","TIME_SYSTEM":"UTC","REF_FRAME":"TEME","LAUNCH_DATE":"2021-12-18","TLE_LINE2":"2 50189  53.2180 136.8037 0001982  57.3866 302.7317 15.08839013 46716","PERIOD":"95.438","TLE_LINE1":"1 50189U 21125AK  22271.62343921  .00001316  00000-0  10076-3 0  9996","MEAN_MOTION":"15.08839013","CLASSIFICATION_TYPE":"U","SEMIMAJOR_AXIS":"6917.883","CENTER_NAME":"EARTH","REV_AT_EPOCH":"4671","COUNTRY_CODE":"US","ELEMENT_SET_NO":"999","OBJECT_NAME":"STARLINK-3276","MEAN_ELEMENT_THEORY":"SGP4","APOAPSIS":"541.120","EPHEMERIS_TYPE":"0","ARG_OF_PERICENTER":"57.3866","INCLINATION":"53.2180","SITE":"AFWTR","DECAY_DATE":null,"OBJECT_ID":"2021-125AK","OBJECT_TYPE":"PAYLOAD","NORAD_CAT_ID":"50189","EPOCH":"2022-09-28T14:57:45.147744","PERIAPSIS":"538.377","RCS_SIZE":"LARGE","GP_ID":"213767320","MEAN_MOTION_DOT":"0.00001316","MEAN_ANOMALY":"302.7317","FILE":"3586258","RA_OF_ASC_NODE":"136.8037","MEAN_MOTION_DDOT":"0.0000000000000","ECCENTRICITY":"0.00019820"},{"ECCENTRICITY":"0.00019620","MEAN_MOTION_DDOT":"0.0000000000000","MEAN_MOTION_DOT":"0.00001294","MEAN_ANOMALY":"303.8473","FILE":"3586258","RA_OF_ASC_NODE":"125.6939","NORAD_CAT_ID":"50190","EPOCH":"2022-09-28T20:54:07.176096","RCS_SIZE":"LARGE","PERIAPSIS":"538.396","GP_ID":"213767044","OBJECT_TYPE":"PAYLOAD","DECAY_DATE":null,"OBJECT_ID":"2021-125AL","ARG_OF_PERICENTER":"56.2706","INCLINATION":"53.2167","SITE":"AFWTR","APOAPSIS":"541.111","EPHEMERIS_TYPE":"0","MEAN_ELEMENT_THEORY":"SGP4","ELEMENT_SET_NO":"999","OBJECT_NAME":"STARLINK-3268","COUNTRY_CODE":"US","REV_AT_EPOCH":"4684","MEAN_MOTION":"15.08837350","CLASSIFICATION_TYPE":"U","SEMIMAJOR_AXIS":"6917.888","CENTER_NAME":"EARTH","PERIOD":"95.438","TLE_LINE2":"2 50190  53.2167 125.6939 0001962  56.2706 303.8473 15.08837350 46840","TLE_LINE1":"1 50190U 21125AL  22271.87091639  .00001294  00000-0  99389-4 0  9991","TIME_SYSTEM":"UTC","BSTAR":"0.00009938900000","REF_FRAME":"TEME","LAUNCH_DATE":"2021-12-18"},{"REV_AT_EPOCH":"4644","CLASSIFICATION_TYPE":"U","MEAN_MOTION":"15.08845710","SEMIMAJOR_AXIS":"6917.863","CENTER_NAME":"EARTH","TLE_LINE2":"2 50191  53.2141 149.2133 0001730  59.4666 300.6497 15.08845710 46440","PERIOD":"95.437","TLE_LINE1":"1 50191U 21125AM  22271.08523629  .00003979  00000-0  26791-3 0  9992","TIME_SYSTEM":"UTC","BSTAR":"0.00026791000000","REF_FRAME":"TEME","LAUNCH_DATE":"2021-12-18","APOAPSIS":"540.925","EPHEMERIS_TYPE":"0","MEAN_ELEMENT_THEORY":"SGP4","ELEMENT_SET_NO":"999","OBJECT_NAME":"STARLINK-3273","COUNTRY_CODE":"US","OBJECT_TYPE":"PAYLOAD","DECAY_DATE":null,"OBJECT_ID":"2021-125AM","ARG_OF_PERICENTER":"59.4666","INCLINATION":"53.2141","SITE":"AFWTR","ECCENTRICITY":"0.00017300","MEAN_MOTION_DDOT":"0.0000000000000","MEAN_MOTION_DOT":"0.00003979","MEAN_ANOMALY":"300.6497","RA_OF_ASC_NODE":"149.2133","FILE":"3586039","NORAD_CAT_ID":"50191","EPOCH":"2022-09-28T02:02:44.415456","RCS_SIZE":"LARGE","PERIAPSIS":"538.531","GP_ID":"213710185"},{"OBJECT_TYPE":"PAYLOAD","OBJECT_ID":"2021-125AN","DECAY_DATE":null,"SITE":"AFWTR","ARG_OF_PERICENTER":"47.1876","INCLINATION":"53.2168","ECCENTRICITY":"0.00017860","MEAN_MOTION_DDOT":"0.0000000000000","FILE":"3586258","RA_OF_ASC_NODE":"125.7071","MEAN_MOTION_DOT":"0.00001209","MEAN_ANOMALY":"312.9266","RCS_SIZE":"LARGE","PERIAPSIS":"538.491","GP_ID":"213766572","NORAD_CAT_ID":"50192","EPOCH":"2022-09-28T20:48:48.306528","REV_AT_EPOCH":"4684","MEAN_MOTION":"15.08846272","CLASSIFICATION_TYPE":"U","SEMIMAJOR_AXIS":"6917.861","CENTER_NAME":"EARTH","PERIOD":"95.437","TLE_LINE2":"2 50192  53.2168 125.7071 0001786  47.1876 312.9266 15.08846272 46846","TLE_LINE1":"1 50192U 21125AN  22271.86722577  .00001209  00000-0  94033-4 0  9991","REF_FRAME":"TEME","LAUNCH_DATE":"2021-12-18","BSTAR":"0.00009403300000","TIME_SYSTEM":"UTC","EPHEMERIS_TYPE":"0","APOAPSIS":"540.962","MEAN_ELEMENT_THEORY":"SGP4","ELEMENT_SET_NO":"999","OBJECT_NAME":"STARLINK-3259","COUNTRY_CODE":"US"},{"EPOCH":"2022-09-28T14:43:10.135200","NORAD_CAT_ID":"50193","GP_ID":"213766820","PERIAPSIS":"538.479","RCS_SIZE":"LARGE","MEAN_ANOMALY":"312.6483","MEAN_MOTION_DOT":"0.00001249","RA_OF_ASC_NODE":"126.8455","FILE":"3586258","ECCENTRICITY":"0.00018670","MEAN_MOTION_DDOT":"0.0000000000000","INCLINATION":"53.2176","ARG_OF_PERICENTER":"47.4667","SITE":"AFWTR","DECAY_DATE":null,"OBJECT_ID":"2021-125AP","OBJECT_TYPE":"PAYLOAD","COUNTRY_CODE":"US","OBJECT_NAME":"STARLINK-3261","ELEMENT_SET_NO":"999","MEAN_ELEMENT_THEORY":"SGP4","APOAPSIS":"541.062","EPHEMERIS_TYPE":"0","BSTAR":"0.00009660300000","TIME_SYSTEM":"UTC","LAUNCH_DATE":"2021-12-18","REF_FRAME":"TEME","TLE_LINE1":"1 50193U 21125AP  22271.61331175  .00001249  00000-0  96603-4 0  9994","TLE_LINE2":"2 50193  53.2176 126.8455 0001867  47.4667 312.6483 15.08831767 46857","PERIOD":"95.438","SEMIMAJOR_AXIS":"6917.906","CENTER_NAME":"EARTH","MEAN_MOTION":"15.08831767","CLASSIFICATION_TYPE":"U","REV_AT_EPOCH":"4685"},{"COUNTRY_CODE":"US","ELEMENT_SET_NO":"999","OBJECT_NAME":"STARLINK-3269","MEAN_ELEMENT_THEORY":"SGP4","EPHEMERIS_TYPE":"0","APOAPSIS":"540.889","REF_FRAME":"TEME","LAUNCH_DATE":"2021-12-18","TIME_SYSTEM":"UTC","BSTAR":"0.00001231600000","PERIOD":"95.437","TLE_LINE2":"2 50194  53.2174 125.7209 0001671  53.7178 306.3968 15.08843920 46897","TLE_LINE1":"1 50194U 21125AQ  22271.86355418 -.00000092  00000-0  12316-4 0  9993","CLASSIFICATION_TYPE":"U","MEAN_MOTION":"15.08843920","SEMIMAJOR_AXIS":"6917.868","CENTER_NAME":"EARTH","REV_AT_EPOCH":"4689","PERIAPSIS":"538.577","RCS_SIZE":"MEDIUM","GP_ID":"213767545","NORAD_CAT_ID":"50194","EPOCH":"2022-09-28T20:43:31.081152","FILE":"3586258","RA_OF_ASC_NODE":"125.7209","MEAN_MOTION_DOT":"-0.00000092","MEAN_ANOMALY":"306.3968","ECCENTRICITY":"0.00016710","MEAN_MOTION_DDOT":"0.0000000000000","SITE":"AFWTR","ARG_OF_PERICENTER":"53.7178","INCLINATION":"53.2174","OBJECT_ID":"2021-125AQ","DECAY_DATE":null,"OBJECT_TYPE":"PAYLOAD"},{"MEAN_MOTION_DDOT":"0.0000000000000","ECCENTRICITY":"0.00015350","MEAN_ANOMALY":"295.6103","MEAN_MOTION_DOT":"0.00004942","FILE":"3586258","RA_OF_ASC_NODE":"125.9732","EPOCH":"2022-09-28T19:24:01.131552","NORAD_CAT_ID":"50195","GP_ID":"213765822","RCS_SIZE":"LARGE","PERIAPSIS":"538.638","OBJECT_TYPE":"PAYLOAD","DECAY_DATE":null,"OBJECT_ID":"2021-125AR","INCLINATION":"53.2160","ARG_OF_PERICENTER":"64.5047","SITE":"AFWTR","APOAPSIS":"540.761","EPHEMERIS_TYPE":"0","MEAN_ELEMENT_THEORY":"SGP4","OBJECT_NAME":"STARLINK-3266","ELEMENT_SET_NO":"999","COUNTRY_CODE":"US","REV_AT_EPOCH":"4683","SEMIMAJOR_AXIS":"6917.834","CENTER_NAME":"EARTH","CLASSIFICATION_TYPE":"U","MEAN_MOTION":"15.08855021","TLE_LINE1":"1 50195U 21125AR  22271.80834643  .00004942  00000-0  32826-3 0  9994","TLE_LINE2":"2 50195  53.2160 125.9732 0001535  64.5047 295.6103 15.08855021 46830","PERIOD":"95.437","TIME_SYSTEM":"UTC","BSTAR":"0.00032826000000","LAUNCH_DATE":"2021-12-18","REF_FRAME":"TEME"},{"REV_AT_EPOCH":"4684","CLASSIFICATION_TYPE":"U","MEAN_MOTION":"15.08808929","CENTER_NAME":"EARTH","SEMIMAJOR_AXIS":"6917.975","PERIOD":"95.440","TLE_LINE2":"2 50196  53.2179 125.7657 0001652  40.5877 319.5238 15.08808929 46841","TLE_LINE1":"1 50196U 21125AS  22271.85619424  .00007924  00000-0  51581-3 0  9990","REF_FRAME":"TEME","LAUNCH_DATE":"2021-12-18","TIME_SYSTEM":"UTC","BSTAR":"0.00051581000000","EPHEMERIS_TYPE":"0","APOAPSIS":"540.983","MEAN_ELEMENT_THEORY":"SGP4","ELEMENT_SET_NO":"999","OBJECT_NAME":"STARLINK-3263","COUNTRY_CODE":"US","OBJECT_TYPE":"PAYLOAD","OBJECT_ID":"2021-125AS","DECAY_DATE":null,"SITE":"AFWTR","ARG_OF_PERICENTER":"40.5877","INCLINATION":"53.2179","ECCENTRICITY":"0.00016520","MEAN_MOTION_DDOT":"0.0000000000000","RA_OF_ASC_NODE":"125.7657","FILE":"3586258","MEAN_MOTION_DOT":"0.00007924","MEAN_ANOMALY":"319.5238","RCS_SIZE":"LARGE","PERIAPSIS":"538.698","GP_ID":"213766072","NORAD_CAT_ID":"50196","EPOCH":"2022-09-28T20:32:55.182336"}];
